OBJECT_NAME,OBJECT_ID,EPOCH,MEAN_MOTION,ECCENTRICITY,INCLINATION,RA_OF_ASC_NODE,ARG_OF_PERICENTER,MEAN_ANOMALY,EPHEMERIS_TYPE,CLASSIFICATION_TYPE,NORAD_CAT_ID,ELEMENT_SET_NO,REV_AT_EPOCH,BSTAR,MEAN_MOTION_DOT,MEAN_MOTION_DDOT
QIANFAN-24,2024-185F,2026-07-12T06:28:52.977504,14.24095902,.00085668,88.9790,52.4754,342.8008,17.2892,0,U,61557,999,10012,.14201514E-3,.341E-5,0
QIANFAN-25,2024-185G,2026-07-12T05:36:40.527360,14.06094094,.00128857,88.9805,54.2565,40.9803,319.2345,0,U,61558,999,9922,.12657789E-3,.222E-5,0
QIANFAN-26,2024-185H,2026-07-12T05:13:52.119840,13.77923036,.00078911,88.9804,56.9264,89.8733,270.3338,0,U,61559,999,9779,.13944013E-3,.153E-5,0
QIANFAN-27,2024-185J,2026-07-12T05:43:07.313376,14.27554945,.00060363,88.9802,52.1527,333.3547,26.7336,0,U,61560,999,10033,.11943358E-3,.308E-5,0
QIANFAN-28,2024-185K,2026-07-12T04:10:31.836576,14.28416502,.00058413,88.9820,52.1734,331.6521,28.4355,0,U,61561,999,10035,.14196832E-3,.369E-5,0
QIANFAN-29,2024-185L,2026-07-12T06:08:30.146208,13.51078115,.00106133,88.9778,59.4495,148.7271,211.4513,0,U,61562,999,9635,.15641023E-3,.113E-5,0
QIANFAN-30,2024-185M,2026-07-12T04:02:58.101792,13.50061421,.00086584,88.9798,59.0647,133.6806,226.5064,0,U,61563,999,9659,.14789399E-3,.106E-5,0
QIANFAN-31,2024-185N,2026-07-12T05:18:41.922720,13.58045657,.0008536,88.9781,58.5255,121.6480,238.5509,0,U,61564,999,9686,.1350518E-3,.11E-5,0
QIANFAN-32,2024-185P,2026-07-12T04:03:43.957728,13.50791471,.00097782,88.9838,59.2620,163.7649,196.3817,0,U,61565,999,9658,.16179551E-3,.116E-5,0
QIANFAN-33,2024-185Q,2026-07-12T06:09:46.009728,13.96718663,.00089277,88.9796,55.2280,38.7404,321.4412,0,U,61566,999,9868,.1073127E-3,.162E-5,0
QIANFAN-34,2024-185R,2026-07-12T06:45:27.170208,14.02483238,.00071731,88.9775,54.5088,37.4864,322.6815,0,U,61567,999,9900,.78858213E-4,.135E-5,0
QIANFAN-35,2024-185S,2026-07-12T05:24:13.985568,14.28295812,.00049559,88.9800,52.0579,331.1030,28.9889,0,U,61568,999,10036,.13751152E-3,.358E-5,0
QIANFAN-36,2024-185T,2026-07-12T06:49:48.715104,13.55639815,.00073872,88.9774,59.0019,134.0571,226.1192,0,U,61569,999,9658,.10590341E-3,.86E-6,0
GAOFEN-12 05,2024-186A,2026-07-12T06:30:54.792864,14.80976541,.00014682,97.9098,201.0792,122.7272,237.4082,0,U,61571,999,9305,.31682774E-4,.193E-5,0
STARLINK-11356 [DTC],2024-187A,2026-07-11T20:50:03.835680,15.69707280,.00006961,53.1584,44.1246,114.7576,245.3514,0,U,61574,999,10028,.12551687E-4,.933E-5,0
STARLINK-11376 [DTC],2024-187B,2026-07-11T23:46:21.824832,15.69710113,.00007739,53.1585,43.4617,79.4547,280.6558,0,U,61575,999,10022,.4406126E-5,-.54E-6,0
STARLINK-11372 [DTC],2024-187C,2026-07-11T20:35:55.491360,15.69714501,.00005018,53.1575,44.0557,88.5685,271.5390,0,U,61576,999,10025,.1077076E-5,-.457E-5,0
STARLINK-11375 [DTC],2024-187D,2026-07-11T18:57:11.356992,15.69703027,.00007681,53.1584,44.3362,64.4668,295.6430,0,U,61577,999,10024,-.10403052E-4,-.1848E-4,0
STARLINK-11285 [DTC],2024-187E,2026-07-11T20:21:48.273696,15.69709486,.0000803,53.1588,43.9907,94.7440,265.3670,0,U,61578,999,10020,-.3108435E-5,-.965E-5,0
STARLINK-11275 [DTC],2024-187F,2026-07-11T18:43:03.101664,15.69711404,.00008261,53.1584,44.2721,83.8613,276.2499,0,U,61579,999,10019,-.820173E-6,-.687E-5,0
STARLINK-11342 [DTC],2024-187G,2026-07-11T23:11:02.860512,15.69709873,.00009052,53.1570,43.2968,94.4083,265.7039,0,U,61580,999,10032,.15060469E-4,.1237E-4,0
STARLINK-11374 [DTC],2024-187H,2026-07-11T23:04:07.951296,15.69706898,.00007728,53.1572,43.9993,80.7028,279.4077,0,U,61581,999,10031,.32207212E-4,.3315E-4,0
STARLINK-11373 [DTC],2024-187J,2026-07-12T00:28:44.823936,15.69705171,.00008797,53.1587,43.6520,103.7775,256.3341,0,U,61582,999,10027,-.1415667E-5,-.76E-5,0
STARLINK-11368 [DTC],2024-187K,2026-07-12T00:21:41.177952,15.69705182,.00010131,53.1599,43.6187,90.5360,269.5774,0,U,61583,999,10022,.9677048E-5,.584E-5,0
STARLINK-11370 [DTC],2024-187L,2026-07-12T00:14:37.054176,15.69708986,.0000688,53.1580,43.5871,97.9927,262.1169,0,U,61584,999,10027,.1730822E-5,-.378E-5,0
STARLINK-11361 [DTC],2024-187M,2026-07-12T00:07:33.761568,15.69724534,.0001306,53.1569,43.5556,62.2622,297.8528,0,U,61585,999,10027,.86632765E-3,.105777E-2,0
STARLINK-11360 [DTC],2024-187N,2026-07-12T00:00:34.972128,15.69777712,.00002387,53.1585,43.5196,35.0485,325.0548,0,U,61586,999,10032,-.15881554E-3,-.19835E-3,0
STARLINK-32353,2024-187P,2026-07-12T00:44:12.679584,15.34397663,.00014117,53.1564,205.1503,65.5469,294.5680,0,U,61587,999,9809,.30854673E-3,.10062E-3,0
STARLINK-32325,2024-187Q,2026-07-12T01:11:28.496832,15.34395163,.00016175,53.1553,205.2757,87.1226,272.9962,0,U,61588,999,9815,.664687E-4,.187E-4,0
STARLINK-32416,2024-187R,2026-07-12T00:25:05.570976,15.34394207,.00007378,53.1541,190.8579,61.4180,298.6897,0,U,61589,999,9835,.2675507E-5,-.285E-5,0
STARLINK-32413,2024-187S,2026-07-12T01:29:39.674400,15.34395066,.0001139,53.1575,205.3435,80.4430,279.6701,0,U,61590,999,9815,.43245358E-4,.1085E-4,0
STARLINK-32409,2024-187T,2026-07-11T23:27:39.439584,15.34389969,.00007,53.1570,191.3205,92.3605,267.7478,0,U,61591,999,9834,.12171E-4,.35E-6,0
STARLINK-32422,2024-187U,2026-07-11T10:39:05.863968,15.34406072,.0000925,53.1581,193.6765,74.2102,285.9003,0,U,61592,999,9826,.51466427E-4,.1363E-4,0
STARLINK-32397,2024-187V,2026-07-12T01:10:38.697600,15.34393837,.00013949,53.1544,203.1324,67.8244,292.2906,0,U,61593,999,9818,.52758057E-4,.1406E-4,0
ONEWEB-0015,2024-188A,2026-07-11T22:52:47.569440,13.11417855,.00015803,87.8879,16.1604,73.3914,286.7387,0,U,61594,999,8770,.12841112E-2,.468E-5,0
ONEWEB-0687,2024-188B,2026-07-11T21:50:27.170016,13.17648988,.0002059,87.9136,0.9567,77.7910,282.3452,0,U,61595,999,8915,-.22925E-3,-.76E-6,0
ONEWEB-0688,2024-188C,2026-07-11T20:42:23.734944,13.17651288,.00013709,87.9135,0.9662,48.5623,311.5626,0,U,61596,999,8914,.15733898E-3,.74E-6,0
ONEWEB-0689,2024-188D,2026-07-11T21:51:44.127360,13.11414773,.0002119,87.8891,16.1304,85.3037,274.8333,0,U,61597,999,8769,-.97267E-3,-.332E-5,0
ONEWEB-0690,2024-188E,2026-07-11T12:57:03.117888,13.11416619,.00014586,87.8890,16.2152,107.1048,253.0239,0,U,61598,999,8782,-.14578563E-2,-.504E-5,0
ONEWEB-0691,2024-188F,2026-07-11T12:49:43.603680,13.11415450,.00017727,87.8898,16.1272,76.8566,283.2760,0,U,61599,999,8767,-.13264237E-2,-.457E-5,0
ONEWEB-0692,2024-188G,2026-07-11T13:19:01.737408,13.11418816,.00025259,87.8884,16.2314,98.5170,261.6244,0,U,61600,999,8766,-.53410463E-3,-.177E-5,0
ONEWEB-0693,2024-188H,2026-07-11T11:52:41.015424,13.17649911,.00012921,87.9133,1.0580,111.9499,248.1770,0,U,61601,999,8908,.11436393E-4,.17E-6,0
ONEWEB-0695,2024-188J,2026-07-11T12:44:50.772480,13.11415424,.00023027,87.8883,16.2283,89.7068,270.4323,0,U,61602,999,8765,-.11926269E-2,-.41E-5,0
ONEWEB-0697,2024-188K,2026-07-11T20:50:43.056960,13.11418883,.0002498,87.8882,16.1513,99.3782,260.7629,0,U,61603,999,8768,.62728E-3,.235E-5,0
ONEWEB-0698,2024-188L,2026-07-11T23:58:42.007584,13.11416609,.00023229,87.8878,16.1390,119.6504,240.4855,0,U,61604,999,8772,-.1463757E-2,-.506E-5,0
ONEWEB-0699,2024-188M,2026-07-11T22:55:18.415200,13.10370234,.00023871,87.8806,31.3289,101.2733,258.8663,0,U,61605,999,8655,-.83034761E-3,-.277E-5,0
ONEWEB-0700,2024-188N,2026-07-11T22:57:43.446240,13.10369312,.00023966,87.8837,31.2434,97.9920,262.1479,0,U,61606,999,8654,-.15342033E-2,-.523E-5,0
ONEWEB-0701,2024-188P,2026-07-11T23:22:11.097984,13.10375286,.00024761,87.8821,31.3267,101.5189,258.6217,0,U,61607,999,8655,-.13464027E-2,-.457E-5,0
ONEWEB-0702,2024-188Q,2026-07-11T12:15:34.141248,13.11414790,.00027887,87.8880,16.1461,97.3520,262.7925,0,U,61608,999,8767,.10821247E-2,.396E-5,0
ONEWEB-0704,2024-188R,2026-07-11T13:55:17.198688,13.10371448,.00028408,87.8823,31.3952,92.8335,267.3117,0,U,61609,999,8648,-.18413777E-2,-.63E-5,0
ONEWEB-0705,2024-188S,2026-07-11T23:12:24.403104,13.10373130,.00027463,87.8824,31.3240,76.2818,283.8615,0,U,61610,999,7870,-.18743552E-2,-.642E-5,0
ONEWEB-0706,2024-188T,2026-07-12T00:40:22.454688,13.10369792,.00024638,87.8826,31.3168,88.1334,272.0075,0,U,61611,999,8663,-.85938277E-3,-.287E-5,0
ONEWEB-0707,2024-188U,2026-07-11T13:50:23.309088,13.10370009,.00024122,87.8822,31.4007,88.7938,271.3466,0,U,61612,999,8651,-.167157E-2,-.571E-5,0
ONEWEB-0708,2024-188V,2026-07-11T23:27:03.369312,13.10374160,.00020963,87.8821,31.3372,72.1815,287.9541,0,U,61613,999,8654,-.85551662E-3,-.286E-5,0
TIANPING 3A-01,2024-189A,2026-07-12T07:29:31.024032,15.00965403,.00022258,97.5179,212.7361,62.8224,297.3227,0,U,61614,999,9425,.13317779E-3,.1641E-4,0
TIANPING 3B-01,2024-189B,2026-07-11T13:52:54.336288,15.01022120,.00013113,97.5167,211.9258,66.3145,293.8217,0,U,61615,999,9410,.11597734E-3,.1424E-4,0
TIANPING 3B-02,2024-189C,2026-07-12T07:29:04.087968,15.01001412,.00024329,97.5184,212.7518,69.8248,290.3238,0,U,61616,999,9421,.10455773E-3,.1277E-4,0
YAOGAN-43 03A,2024-190A,2026-07-12T00:34:49.693728,15.23081359,.00046866,34.9913,41.5117,208.6410,151.4048,0,U,61617,999,9565,.18926713E-3,.4538E-4,0
YAOGAN-43 03B,2024-190B,2026-07-12T00:36:08.073216,15.22950357,.00075863,34.9890,41.3907,225.1971,134.8127,0,U,61618,999,9565,.21451925E-3,.5131E-4,0
YAOGAN-43 03C,2024-190C,2026-07-12T00:43:51.032064,15.23113865,.00060525,34.9966,41.8297,218.3782,141.6503,0,U,61619,999,9561,.76561105E-4,.1815E-4,0
STARLINK-32302,2024-191A,2026-07-12T00:24:18.983232,15.27576312,.00015376,43.0009,172.1124,280.2208,79.8470,0,U,61621,999,9730,.12508121E-4,.82E-6,0
STARLINK-32364,2024-191B,2026-07-12T00:39:07.097472,15.27575177,.00013392,42.9995,172.1863,261.5608,98.5092,0,U,61622,999,9655,.17711095E-4,.225E-5,0
STARLINK-32331,2024-191C,2026-07-12T07:13:34.996800,15.27569051,.00009287,43.0007,174.2694,257.3863,102.6884,0,U,61623,999,9655,.364067E-6,-.252E-5,0
STARLINK-32398,2024-191D,2026-07-12T07:12:22.815648,15.27602632,.00008596,42.9987,170.7981,321.4008,38.6782,0,U,61624,999,9659,.9807641E-4,.244E-4,0
STARLINK-32365,2024-191E,2026-07-11T22:53:52.198368,15.27574470,.00007007,42.9982,172.4991,314.7810,45.2985,0,U,61625,999,9654,.12365156E-4,.78E-6,0
